FORMOSAT 7-5            
1 44358U 19036V   26068.77147620  .00003857  00000+0  30916-3 0  9993
2 44358  23.9972 218.3817 0000871  89.5193 270.5408 14.96027232367445
STARLINK-5579           
1 55746U 23028F   26068.90739818  .00000436  00000+0  44316-4 0  9993
2 55746  69.9991 243.8699 0002335 271.0095  89.0797 14.98333957166072
